{
  "type": "FeatureCollection",
  "features": [
    {
      "type": "Feature",
      "properties": {
        "norad_id": 2807,
        "name": "OPS 7218 (TRANSIT 16)",
        "group": "nnss",
        "lat": 78.56000613570936,
        "lon": 172.4831022652709,
        "alt_km": 1047.0331694297565,
        "timestamp": "2025-12-10T05:46:14.090675+00:00",
        "meta_object_name": "OPS 7218 (TRANSIT 16)",
        "meta_object_id": "1967-048A",
        "meta_epoch": "2025-12-09T19:27:21.539808",
        "meta_mean_motion": 13.50721437,
        "meta_eccentricity": 0.0021833,
        "meta_inclination": 89.6732,
        "meta_ra_of_asc_node": 354.1134,
        "meta_arg_of_pericenter": 121.9159,
        "meta_mean_anomaly": 51.0026,
        "meta_ephemeris_type": 0,
        "meta_classification_type": "U",
        "meta_norad_cat_id": 2807,
        "meta_element_set_no": 999,
        "meta_rev_at_epoch": 88236,
        "meta_bstar": 0.00021843,
        "meta_mean_motion_dot": 1.51e-06,
        "meta_mean_motion_ddot": 0,
        "tle_line1": "1 02807U 67048A   25343.81066597  .00000151  00000+0  21843-3 0  9998",
        "tle_line2": "2 02807  89.6732 354.1134 0021833 121.9159  51.0026 13.50721437882364"
      },
      "geometry": {
        "type": "Point",
        "coordinates": [
          172.4831022652709,
          78.56000613570936
        ]
      }
    },
    {
      "type": "Feature",
      "properties": {
        "norad_id": 2965,
        "name": "OPS 4947 (TRANSIT 17)",
        "group": "nnss",
        "lat": 38.98880984074408,
        "lon": -155.9810833956418,
        "alt_km": 1063.130923270296,
        "timestamp": "2025-12-10T05:46:14.090700+00:00",
        "meta_object_name": "OPS 4947 (TRANSIT 17)",
        "meta_object_id": "1967-092A",
        "meta_epoch": "2025-12-09T09:36:30.324672",
        "meta_mean_motion": 13.53452312,
        "meta_eccentricity": 0.00459991,
        "meta_inclination": 89.2499,
        "meta_ra_of_asc_node": 24.6904,
        "meta_arg_of_pericenter": 244.5157,
        "meta_mean_anomaly": 126.0877,
        "meta_ephemeris_type": 0,
        "meta_classification_type": "U",
        "meta_norad_cat_id": 2965,
        "meta_element_set_no": 999,
        "meta_rev_at_epoch": 87052,
        "meta_bstar": 0.00025971381,
        "meta_mean_motion_dot": 1.87e-06,
        "meta_mean_motion_ddot": 0,
        "tle_line1": "1 02965U 67092A   25343.40035098  .00000187  00000+0  25971-3 0  9994",
        "tle_line2": "2 02965  89.2499  24.6904 0045999 244.5157 126.0877 13.53452312870526"
      },
      "geometry": {
        "type": "Point",
        "coordinates": [
          -155.9810833956418,
          38.98880984074408
        ]
      }
    },
    {
      "type": "Feature",
      "properties": {
        "norad_id": 3133,
        "name": "OPS 7034 (TRANSIT 18)",
        "group": "nnss",
        "lat": -51.85167633183894,
        "lon": -86.33314644694111,
        "alt_km": 1109.8371134955541,
        "timestamp": "2025-12-10T05:46:14.090715+00:00",
        "meta_object_name": "OPS 7034 (TRANSIT 18)",
        "meta_object_id": "1968-012A",
        "meta_epoch": "2025-12-09T19:29:54.021984",
        "meta_mean_motion": 13.51564681,
        "meta_eccentricity": 0.0073569,
        "meta_inclination": 90.0276,
        "meta_ra_of_asc_node": 273.6305,
        "meta_arg_of_pericenter": 177.6268,
        "meta_mean_anomaly": 208.6684,
        "meta_ephemeris_type": 0,
        "meta_classification_type": "U",
        "meta_norad_cat_id": 3133,
        "meta_element_set_no": 999,
        "meta_rev_at_epoch": 56879,
        "meta_bstar": 0.00027275,
        "meta_mean_motion_dot": 1.9e-06,
        "meta_mean_motion_ddot": 0,
        "tle_line1": "1 03133U 68012A   25343.81243081  .00000190  00000+0  27275-3 0  9996",
        "tle_line2": "2 03133  90.0276 273.6305 0073569 177.6268 208.6684 13.51564681568798"
      },
      "geometry": {
        "type": "Point",
        "coordinates": [
          -86.33314644694111,
          -51.85167633183894
        ]
      }
    },
    {
      "type": "Feature",
      "properties": {
        "norad_id": 4507,
        "name": "NNSS 19 (TRANSIT 19)",
        "group": "nnss",
        "lat": -79.37117537681331,
        "lon": -125.43754855055285,
        "alt_km": 955.1888778899392,
        "timestamp": "2025-12-10T05:46:14.090727+00:00",
        "meta_object_name": "NNSS 19 (TRANSIT 19)",
        "meta_object_id": "1970-067A",
        "meta_epoch": "2025-12-09T10:36:12.002112",
        "meta_mean_motion": 13.51314006,
        "meta_eccentricity": 0.01707452,
        "meta_inclination": 90.0057,
        "meta_ra_of_asc_node": 234.5316,
        "meta_arg_of_pericenter": 303.0164,
        "meta_mean_anomaly": 55.4679,
        "meta_ephemeris_type": 0,
        "meta_classification_type": "U",
        "meta_norad_cat_id": 4507,
        "meta_element_set_no": 999,
        "meta_rev_at_epoch": 72177,
        "meta_bstar": 0.00031890867,
        "meta_mean_motion_dot": 2.34e-06,
        "meta_mean_motion_ddot": 0,
        "tle_line1": "1 04507U 70067A   25343.44180558  .00000234  00000+0  31891-3 0  9991",
        "tle_line2": "2 04507  90.0057 234.5316 0170745 303.0164  55.4679 13.51314006721778"
      },
      "geometry": {
        "type": "Point",
        "coordinates": [
          -125.43754855055285,
          -79.37117537681331
        ]
      }
    },
    {
      "type": "Feature",
      "properties": {
        "norad_id": 6909,
        "name": "NNSS 20 (TRANSIT 20)",
        "group": "nnss",
        "lat": 4.882756958031891,
        "lon": 75.07920942851256,
        "alt_km": 993.5750875524263,
        "timestamp": "2025-12-10T05:46:14.090739+00:00",
        "meta_object_name": "NNSS 20 (TRANSIT 20)",
        "meta_object_id": "1973-081A",
        "meta_epoch": "2025-12-09T11:25:36.409440",
        "meta_mean_motion": 13.71432035,
        "meta_eccentricity": 0.0156617,
        "meta_inclination": 89.8562,
        "meta_ra_of_asc_node": 255.103,
        "meta_arg_of_pericenter": 87.977,
        "meta_mean_anomaly": 273.932,
        "meta_ephemeris_type": 0,
        "meta_classification_type": "U",
        "meta_norad_cat_id": 6909,
        "meta_element_set_no": 999,
        "meta_rev_at_epoch": 80316,
        "meta_bstar": 0.00036387222,
        "meta_mean_motion_dot": 3.69e-06,
        "meta_mean_motion_ddot": 0,
        "tle_line1": "1 06909U 73081A   25343.47611585  .00000369  00000+0  36387-3 0  9994",
        "tle_line2": "2 06909  89.8562 255.1030 0156617  87.9770 273.9320 13.71432035803167"
      },
      "geometry": {
        "type": "Point",
        "coordinates": [
          75.07920942851256,
          4.882756958031891
        ]
      }
    },
    {
      "type": "Feature",
      "properties": {
        "norad_id": 10457,
        "name": "TRANSAT",
        "group": "nnss",
        "lat": -52.20408970973286,
        "lon": 78.23149358604505,
        "alt_km": 1089.8547883786896,
        "timestamp": "2025-12-10T05:46:14.090750+00:00",
        "meta_object_name": "TRANSAT",
        "meta_object_id": "1977-106A",
        "meta_epoch": "2025-12-09T18:23:16.357920",
        "meta_mean_motion": 13.48943,
        "meta_eccentricity": 0.002511,
        "meta_inclination": 89.6481,
        "meta_ra_of_asc_node": 78.7023,
        "meta_arg_of_pericenter": 198.1954,
        "meta_mean_anomaly": 327.5817,
        "meta_ephemeris_type": 0,
        "meta_classification_type": "U",
        "meta_norad_cat_id": 10457,
        "meta_element_set_no": 999,
        "meta_rev_at_epoch": 36703,
        "meta_bstar": 0.00021291,
        "meta_mean_motion_dot": 1.44e-06,
        "meta_mean_motion_ddot": 0,
        "tle_line1": "1 10457U 77106A   25343.76616155  .00000144  00000+0  21291-3 0  9998",
        "tle_line2": "2 10457  89.6481  78.7023 0025110 198.1954 327.5817 13.48943000367032"
      },
      "geometry": {
        "type": "Point",
        "coordinates": [
          78.23149358604505,
          -52.20408970973286
        ]
      }
    },
    {
      "type": "Feature",
      "properties": {
        "norad_id": 12458,
        "name": "NOVA 1",
        "group": "nnss",
        "lat": 79.62855703097192,
        "lon": 92.22743765911646,
        "alt_km": 1154.6415569803403,
        "timestamp": "2025-12-10T05:46:14.090761+00:00",
        "meta_object_name": "NOVA 1",
        "meta_object_id": "1981-044A",
        "meta_epoch": "2025-12-09T17:32:56.257152",
        "meta_mean_motion": 13.23278034,
        "meta_eccentricity": 0.0015825,
        "meta_inclination": 89.8524,
        "meta_ra_of_asc_node": 91.4277,
        "meta_arg_of_pericenter": 111.3717,
        "meta_mean_anomaly": 63.8823,
        "meta_ephemeris_type": 0,
        "meta_classification_type": "U",
        "meta_norad_cat_id": 12458,
        "meta_element_set_no": 999,
        "meta_rev_at_epoch": 15146,
        "meta_bstar": 0.00021671,
        "meta_mean_motion_dot": 1.01e-06,
        "meta_mean_motion_ddot": 0,
        "tle_line1": "1 12458U 81044A   25343.73120668  .00000101  00000+0  21671-3 0  9998",
        "tle_line2": "2 12458  89.8524  91.4277 0015825 111.3717  63.8823 13.23278034151460"
      },
      "geometry": {
        "type": "Point",
        "coordinates": [
          92.22743765911646,
          79.62855703097192
        ]
      }
    }
  ]
}